H1 CPF  1  DLR 2021 09 14 10  7572 technosat            
H2  1704205 6203    42829 2021 09 14 00 00 00 2021 09 21 00 00 00    60 1 1  0 0 0
H9
10 0 59476  72000.000000  0       5258790.860        166482.305      -4572751.218
10 0 59476  72060.000000  0       4958009.003         57279.627      -4900494.332
10 0 59476  72120.000000  0       4635427.457        -49436.571      -5207474.807
10 0 59476  72180.000000  0       4292440.540       -153032.899      -5492406.532
10 0 59476  72240.000000  0       3930531.883       -252902.238      -5754098.283
10 0 59476  72300.000000  0       3551267.707       -348467.018      -5991458.453
10 0 59476  72360.000000  0       3156289.705       -439182.292      -6203499.311
10 0 59476  72420.000000  0       2747307.677       -524538.567      -6389340.680
10 0 59476  72480.000000  0       2326091.994       -604064.410      -6548213.177
10 0 59476  72540.000000  0       1894465.903       -677328.836      -6679461.033
10 0 59476  72600.000000  0       1454297.635       -743943.489      -6782544.516
10 0 59476  72660.000000  0       1007492.300       -803564.550      -6857041.885
10 0 59476  72720.000000  0        555983.651       -855894.337      -6902650.829
10 0 59476  72780.000000  0        101725.820       -900682.666      -6919189.384
10 0 59476  72840.000000  0       -353314.933       -937727.968      -6906596.471
10 0 59476  72900.000000  0       -807168.545       -966878.152      -6864932.061
10 0 59476  72960.000000  0      -1257869.570       -988031.182      -6794376.828
10 0 59476  73020.000000  0      -1703465.498      -1001135.363      -6695231.325
10 0 59476  73080.000000  0      -2142025.070      -1006189.388      -6567914.702
10 0 59476  73140.000000  0      -2571646.408      -1003242.102      -6412962.931
10 0 59476  73200.000000  0      -2990465.001       -992392.004      -6231026.733
10 0 59476  73260.000000  0      -3396661.677       -973786.507      -6022869.147
10 0 59476  73320.000000  0      -3788470.499       -947620.929      -5789362.593
10 0 59476  73380.000000  0      -4164186.454       -914137.207      -5531485.427
10 0 59476  73440.000000  0      -4522172.862       -873622.355      -5250318.081
10 0 59476  73500.000000  0      -4860868.542       -826406.697      -4947038.817
10 0 59476  73560.000000  0      -5178794.719       -772861.863      -4622919.073
10 0 59476  73620.000000  0      -5474561.626       -713398.563      -4279318.425
10 0 59476  73680.000000  0      -5746874.819       -648464.131      -3917679.134
10 0 59476  73740.000000  0      -5994541.090       -578539.822      -3539520.280
10 0 59476  73800.000000  0      -6216473.939       -504137.918      -3146431.546
10 0 59476  73860.000000  0      -6411698.576       -425798.669      -2740066.665
10 0 59476  73920.000000  0      -6579356.482       -344087.095      -2322136.580
10 0 59476  73980.000000  0      -6718709.505       -259589.611      -1894402.338
10 0 59476  74040.000000  0      -6829143.464       -172910.476      -1458667.673
10 0 59476  74100.000000  0      -6910171.129        -84668.144      -1016771.268
10 0 59476  74160.000000  0      -6961434.510          4508.464       -570578.839
10 0 59476  74220.000000  0      -6982706.524         93983.766       -121975.181
10 0 59476  74280.000000  0      -6973892.132        183119.364        327143.847
10 0 59476  74340.000000  0      -6935028.922        271277.913        774879.443
10 0 59476  74400.000000  0      -6866287.019        357826.991       1219338.064
10 0 59476  74460.000000  0      -6767968.369        442142.926       1658639.593
10 0 59476  74520.000000  0      -6640505.395        523614.595       2090925.468
10 0 59476  74580.000000  0      -6484459.014        601647.155       2514366.699
10 0 59476  74640.000000  0      -6300516.051        675665.685       2927171.749
10 0 59476  74700.000000  0      -6089486.043        745118.712       3327594.240
10 0 59476  74760.000000  0      -5852297.444        809481.589       3713940.387
10 0 59476  74820.000000  0      -5589993.363        868259.728       4084576.171
10 0 59476  74880.000000  0      -5303726.770        920991.658       4437934.262
10 0 59476  74940.000000  0      -4994755.194        967251.887       4772520.605
10 0 59476  75000.000000  0      -4664434.994       1006653.546       5086920.627
10 0 59476  75060.000000  0      -4314215.250       1038850.835       5379805.100
10 0 59476  75120.000000  0      -3945631.290       1063541.242       5649935.671
10 0 59476  75180.000000  0      -3560297.790       1080467.516       5896170.014
10 0 59476  75240.000000  0      -3159901.591       1089419.353       6117466.510
10 0 59476  75300.000000  0      -2746194.233       1090234.860       6312888.579
10 0 59476  75360.000000  0      -2320984.163       1082801.787       6481608.519
10 0 59476  75420.000000  0      -1886128.739       1067058.457       6622910.848
10 0 59476  75480.000000  0      -1443526.092       1042994.395       6736195.159
10 0 59476  75540.000000  0       -995106.890       1010650.698       6820978.540
10 0 59476  75600.000000  0       -542825.990        970120.145       6876897.583
10 0 59476  75660.000000  0        -88653.966        921546.981       6903709.910
10 0 59476  75720.000000  0        365431.386        865126.451       6901295.238
10 0 59476  75780.000000  0        817453.609        801104.061       6869655.992
10 0 59476  75840.000000  0       1265446.136        729774.564       6808917.428
10 0 59476  75900.000000  0       1707460.817        651480.654       6719327.278
10 0 59476  75960.000000  0       2141576.369        566611.394       6601254.913
10 0 59476  76020.000000  0       2565906.753        475600.393       6455190.090
10 0 59476  76080.000000  0       2978609.500        378923.686       6281741.170
10 0 59476  76140.000000  0       3377893.854        277097.373       6081632.780
10 0 59476  76200.000000  0       3762028.666        170675.020       5855703.042
10 0 59476  76260.000000  0       4129350.119         60244.800       5604900.332
10 0 59476  76320.000000  0       4478269.174        -53573.578       5330279.524
10 0 59476  76380.000000  0       4807278.713       -170132.135       5032997.795
10 0 59476  76440.000000  0       5114960.412       -288758.120       4714309.950
10 0 59476  76500.000000  0       5399991.187       -408757.687       4375563.277
10 0 59476  76560.000000  0       5661149.286       -529419.682       4018192.037
10 0 59476  76620.000000  0       5897320.015       -650019.608       3643711.419
10 0 59476  76680.000000  0       6107500.833       -769823.730       3253711.102
10 0 59476  76740.000000  0       6290806.078       -888093.260       2849848.491
10 0 59476  76800.000000  0       6446471.031      -1004088.571       2433841.446
10 0 59476  76860.000000  0       6573855.363      -1117073.463       2007460.867
10 0 59476  76920.000000  0       6672446.083      -1226319.491       1572522.966
10 0 59476  76980.000000  0       6741859.838      -1331110.277       1130881.309
10 0 59476  77040.000000  0       6781844.669      -1430745.788        684418.670
10 0 59476  77100.000000  0       6792281.107      -1524546.598        235038.587
10 0 59476  77160.000000  0       6773182.411      -1611857.997       -215343.207
10 0 59476  77220.000000  0       6724694.171      -1692053.937       -664807.227
10 0 59476  77280.000000  0       6647093.401      -1764540.890      -1111438.745
10 0 59476  77340.000000  0       6540786.896      -1828761.553      -1553336.346
10 0 59476  77400.000000  0       6406308.899      -1884198.324      -1988620.353
10 0 59476  77460.000000  0       6244318.159      -1930376.568      -2415441.079
10 0 59476  77520.000000  0       6055594.404      -1966867.658      -2831986.907
10 0 59476  77580.000000  0       5841034.233      -1993291.759      -3236492.143
10 0 59476  77640.000000  0       5601646.493      -2009320.341      -3627244.589
10 0 59476  77700.000000  0       5338547.171      -2014678.410      -4002592.850
10 0 59476  77760.000000  0       5052953.803      -2009146.448      -4360953.319
10 0 59476  77820.000000  0       4746179.450      -1992562.071      -4700816.806
10 0 59476  77880.000000  0       4419626.242      -1964821.392      -5020754.789
10 0 59476  77940.000000  0       4074778.557      -1925880.058      -5319425.216
10 0 59476  78000.000000  0       3713195.914      -1875753.978      -5595577.851
10 0 59476  78060.000000  0       3336505.646      -1814519.728      -5848059.185
10 0 59476  78120.000000  0       2946395.361      -1742314.638      -6075816.898
10 0 59476  78180.000000  0       2544605.292      -1659336.574      -6277903.942
10 0 59476  78240.000000  0       2132920.365      -1565843.417      -6453482.232
10 0 59476  78300.000000  0       1713162.123      -1462152.217      -6601825.732
10 0 59476  78360.000000  0       1287180.627      -1348638.081      -6722323.045
10 0 59476  78420.000000  0        856846.387      -1225732.803      -6814479.585
10 0 59476  78480.000000  0        424042.196      -1093923.183      -6877919.371
10 0 59476  78540.000000  0         -9345.031       -953749.042      -6912386.232
10 0 59476  78600.000000  0       -441432.260       -805801.020      -6917744.611
10 0 59476  78660.000000  0       -870348.358       -650718.124      -6893980.016
10 0 59476  78720.000000  0      -1294242.086       -489184.963      -6841198.935
10 0 59476  78780.000000  0      -1711289.905       -321928.744      -6759628.248
10 0 59476  78840.000000  0      -2119703.630       -149716.068      -6649614.228
10 0 59476  78900.000000  0      -2517737.891         26650.485      -6511621.097
10 0 59476  78960.000000  0      -2903697.381        206335.982      -6346229.192
10 0 59476  79020.000000  0      -3275943.941        388476.986      -6154132.753
10 0 59476  79080.000000  0      -3632903.480        572185.582      -5936137.257
10 0 59476  79140.000000  0      -3973072.642        756553.565      -5693156.222
99
